IDEFIX & ARIANE 42P R/B 
1 27422U 02021B   26021.43917437  .00000588  00000+0  24005-3 0  9995
2 27422  98.5828 320.6244 0011372 332.1082  27.9490 14.30985412237261
AQUA                    
1 27424U 02022A   26021.53721517  .00002456  00000+0  50140-3 0  9996
2 27424  98.4098 348.0744 0002012  70.1009  46.1672 14.61843091261845
CZ-4B R/B               
1 27432U 02024C   26021.38832343  .00000144  00000+0  97169-4 0  9995
2 27432  98.8937  75.0102 0050601 156.4130 214.5729 14.14537659222552
MIDORI II (ADEOS-II)    
1 27597U 02056A   26021.47985201  .00000619  00000+0  26127-3 0  9996
2 27597  98.7694 339.6569 0001887 109.5749 250.5637 14.29242091203552
H-2A R/B                
1 27601U 02056E   26021.54088205  .00000632  00000+0  23634-3 0  9993
2 27601  98.3121 343.7264 0069304 302.7616 170.5110 14.33718702207356
CZ-4B R/B               
1 28059U 03049C   26021.48321869  .00000842  00000+0  20456-3 0  9995
2 28059  98.6825  14.5570 0048582  17.1135 343.1686 14.54957997179739
CZ-2C R/B               
1 28222U 04012C   26020.68160886  .00089923  00000+0  11401-2 0  9995
2 28222  97.7344  81.6065 0017183 125.9329 234.3523 15.58979089196783
SL-16 R/B               
1 28353U 04021B   26021.29161749 -.00000106  00000+0 -30485-4 0  9990
2 28353  71.0028 331.9618 0002725 129.9299 230.2063 14.14592470116134
CZ-4B R/B               
1 28415U 04035C   26020.99167102  .00017840  00000+0  64161-3 0  9997
2 28415  97.3562  55.8223 0033956 135.8262 224.5698 15.28117949172623
CZ-2C R/B               
1 28480U 04046B   26021.50590830  .00000355  00000+0  14781-3 0  9993
2 28480  98.2002 299.4176 0138405 294.6853  63.9972 14.26969889101775
ARIANE 5 R/B            
1 28499U 04049H   26021.47295442  .00002565  00000+0  28784-3 0  9996
2 28499  98.2550 188.1884 0085063 143.4836 217.2220 14.85142753138785
CZ-2D R/B               
1 28738U 05024B   26021.50325266  .00040026  00000+0  57480-3 0  9997
2 28738  97.3618  35.0689 0005074 167.2011 192.9373 15.55997789132431
