CCSDS_OMM_VERS = 2.0
CREATION_DATE  = 
ORIGINATOR     = 

OBJECT_NAME    = IDEFIX & ARIANE 42P R/B
OBJECT_ID      = 2002-021B
CENTER_NAME    = EARTH
REF_FRAME      = TEME
TIME_SYSTEM    = UTC
MEAN_ELEMENT_THEORY = SGP/SGP4

EPOCH          = 2026-01-21T10:32:24.665568
MEAN_MOTION    = 14.30985412
ECCENTRICITY   = .0011372
INCLINATION    = 98.5828
RA_OF_ASC_NODE = 320.6244
ARG_OF_PERICENTER = 332.1082
MEAN_ANOMALY   = 27.9490

EPHEMERIS_TYPE = 0
CLASSIFICATION_TYPE = U
NORAD_CAT_ID   = 27422
ELEMENT_SET_NO = 999
REV_AT_EPOCH   = 23726
BSTAR          = .24005E-3
MEAN_MOTION_DOT = .588E-5
MEAN_MOTION_DDOT = 0

CCSDS_OMM_VERS = 2.0
CREATION_DATE  = 
ORIGINATOR     = 

OBJECT_NAME    = AQUA
OBJECT_ID      = 2002-022A
CENTER_NAME    = EARTH
REF_FRAME      = TEME
TIME_SYSTEM    = UTC
MEAN_ELEMENT_THEORY = SGP/SGP4

EPOCH          = 2026-01-21T12:53:35.390688
MEAN_MOTION    = 14.61843091
ECCENTRICITY   = .0002012
INCLINATION    = 98.4098
RA_OF_ASC_NODE = 348.0744
ARG_OF_PERICENTER = 70.1009
MEAN_ANOMALY   = 46.1672

EPHEMERIS_TYPE = 0
CLASSIFICATION_TYPE = U
NORAD_CAT_ID   = 27424
ELEMENT_SET_NO = 999
REV_AT_EPOCH   = 26184
BSTAR          = .5014E-3
MEAN_MOTION_DOT = .2456E-4
MEAN_MOTION_DDOT = 0

CCSDS_OMM_VERS = 2.0
CREATION_DATE  = 
ORIGINATOR     = 

OBJECT_NAME    = CZ-4B R/B
OBJECT_ID      = 2002-024C
CENTER_NAME    = EARTH
REF_FRAME      = TEME
TIME_SYSTEM    = UTC
MEAN_ELEMENT_THEORY = SGP/SGP4

EPOCH          = 2026-01-21T09:19:11.144352
MEAN_MOTION    = 14.14537659
ECCENTRICITY   = .0050601
INCLINATION    = 98.8937
RA_OF_ASC_NODE = 75.0102
ARG_OF_PERICENTER = 156.4130
MEAN_ANOMALY   = 214.5729

EPHEMERIS_TYPE = 0
CLASSIFICATION_TYPE = U
NORAD_CAT_ID   = 27432
ELEMENT_SET_NO = 999
REV_AT_EPOCH   = 22255
BSTAR          = .97169E-4
MEAN_MOTION_DOT = .144E-5
MEAN_MOTION_DDOT = 0

CCSDS_OMM_VERS = 2.0
CREATION_DATE  = 
ORIGINATOR     = 

OBJECT_NAME    = MIDORI II (ADEOS-II)
OBJECT_ID      = 2002-056A
CENTER_NAME    = EARTH
REF_FRAME      = TEME
TIME_SYSTEM    = UTC
MEAN_ELEMENT_THEORY = SGP/SGP4

EPOCH          = 2026-01-21T11:30:59.213664
MEAN_MOTION    = 14.29242091
ECCENTRICITY   = .0001887
INCLINATION    = 98.7694
RA_OF_ASC_NODE = 339.6569
ARG_OF_PERICENTER = 109.5749
MEAN_ANOMALY   = 250.5637

EPHEMERIS_TYPE = 0
CLASSIFICATION_TYPE = U
NORAD_CAT_ID   = 27597
ELEMENT_SET_NO = 999
REV_AT_EPOCH   = 20355
BSTAR          = .26127E-3
MEAN_MOTION_DOT = .619E-5
MEAN_MOTION_DDOT = 0

CCSDS_OMM_VERS = 2.0
CREATION_DATE  = 
ORIGINATOR     = 

OBJECT_NAME    = H-2A R/B
OBJECT_ID      = 2002-056E
CENTER_NAME    = EARTH
REF_FRAME      = TEME
TIME_SYSTEM    = UTC
MEAN_ELEMENT_THEORY = SGP/SGP4

EPOCH          = 2026-01-21T12:58:52.209120
MEAN_MOTION    = 14.33718702
ECCENTRICITY   = .0069304
INCLINATION    = 98.3121
RA_OF_ASC_NODE = 343.7264
ARG_OF_PERICENTER = 302.7616
MEAN_ANOMALY   = 170.5110

EPHEMERIS_TYPE = 0
CLASSIFICATION_TYPE = U
NORAD_CAT_ID   = 27601
ELEMENT_SET_NO = 999
REV_AT_EPOCH   = 20735
BSTAR          = .23634E-3
MEAN_MOTION_DOT = .632E-5
MEAN_MOTION_DDOT = 0

CCSDS_OMM_VERS = 2.0
CREATION_DATE  = 
ORIGINATOR     = 

OBJECT_NAME    = CZ-4B R/B
OBJECT_ID      = 2003-049C
CENTER_NAME    = EARTH
REF_FRAME      = TEME
TIME_SYSTEM    = UTC
MEAN_ELEMENT_THEORY = SGP/SGP4

EPOCH          = 2026-01-21T11:35:50.094816
MEAN_MOTION    = 14.54957997
ECCENTRICITY   = .0048582
INCLINATION    = 98.6825
RA_OF_ASC_NODE = 14.5570
ARG_OF_PERICENTER = 17.1135
MEAN_ANOMALY   = 343.1686

EPHEMERIS_TYPE = 0
CLASSIFICATION_TYPE = U
NORAD_CAT_ID   = 28059
ELEMENT_SET_NO = 999
REV_AT_EPOCH   = 17973
BSTAR          = .20456E-3
MEAN_MOTION_DOT = .842E-5
MEAN_MOTION_DDOT = 0

CCSDS_OMM_VERS = 2.0
CREATION_DATE  = 
ORIGINATOR     = 

OBJECT_NAME    = CZ-2C R/B
OBJECT_ID      = 2004-012C
CENTER_NAME    = EARTH
REF_FRAME      = TEME
TIME_SYSTEM    = UTC
MEAN_ELEMENT_THEORY = SGP/SGP4

EPOCH          = 2026-01-20T16:21:31.005504
MEAN_MOTION    = 15.58979089
ECCENTRICITY   = .00171837
INCLINATION    = 97.7344
RA_OF_ASC_NODE = 81.6065
ARG_OF_PERICENTER = 125.9329
MEAN_ANOMALY   = 234.3523

EPHEMERIS_TYPE = 0
CLASSIFICATION_TYPE = U
NORAD_CAT_ID   = 28222
ELEMENT_SET_NO = 999
REV_AT_EPOCH   = 19678
BSTAR          = .11400822E-2
MEAN_MOTION_DOT = .89923E-3
MEAN_MOTION_DDOT = 0

CCSDS_OMM_VERS = 2.0
CREATION_DATE  = 
ORIGINATOR     = 

OBJECT_NAME    = SL-16 R/B
OBJECT_ID      = 2004-021B
CENTER_NAME    = EARTH
REF_FRAME      = TEME
TIME_SYSTEM    = UTC
MEAN_ELEMENT_THEORY = SGP/SGP4

EPOCH          = 2026-01-21T06:59:55.751136
MEAN_MOTION    = 14.14592470
ECCENTRICITY   = .0002725
INCLINATION    = 71.0028
RA_OF_ASC_NODE = 331.9618
ARG_OF_PERICENTER = 129.9299
MEAN_ANOMALY   = 230.2063

EPHEMERIS_TYPE = 0
CLASSIFICATION_TYPE = U
NORAD_CAT_ID   = 28353
ELEMENT_SET_NO = 999
REV_AT_EPOCH   = 11613
BSTAR          = -.30485E-4
MEAN_MOTION_DOT = -.106E-5
MEAN_MOTION_DDOT = 0

CCSDS_OMM_VERS = 2.0
CREATION_DATE  = 
ORIGINATOR     = 

OBJECT_NAME    = CZ-4B R/B
OBJECT_ID      = 2004-035C
CENTER_NAME    = EARTH
REF_FRAME      = TEME
TIME_SYSTEM    = UTC
MEAN_ELEMENT_THEORY = SGP/SGP4

EPOCH          = 2026-01-20T23:48:00.376128
MEAN_MOTION    = 15.28117949
ECCENTRICITY   = .00339561
INCLINATION    = 97.3562
RA_OF_ASC_NODE = 55.8223
ARG_OF_PERICENTER = 135.8262
MEAN_ANOMALY   = 224.5698

EPHEMERIS_TYPE = 0
CLASSIFICATION_TYPE = U
NORAD_CAT_ID   = 28415
ELEMENT_SET_NO = 999
REV_AT_EPOCH   = 17262
BSTAR          = .64161044E-3
MEAN_MOTION_DOT = .1784E-3
MEAN_MOTION_DDOT = 0

CCSDS_OMM_VERS = 2.0
CREATION_DATE  = 
ORIGINATOR     = 

OBJECT_NAME    = CZ-2C R/B
OBJECT_ID      = 2004-046B
CENTER_NAME    = EARTH
REF_FRAME      = TEME
TIME_SYSTEM    = UTC
MEAN_ELEMENT_THEORY = SGP/SGP4

EPOCH          = 2026-01-21T12:08:30.477120
MEAN_MOTION    = 14.26969889
ECCENTRICITY   = .0138405
INCLINATION    = 98.2002
RA_OF_ASC_NODE = 299.4176
ARG_OF_PERICENTER = 294.6853
MEAN_ANOMALY   = 63.9972

EPHEMERIS_TYPE = 0
CLASSIFICATION_TYPE = U
NORAD_CAT_ID   = 28480
ELEMENT_SET_NO = 999
REV_AT_EPOCH   = 10177
BSTAR          = .14781E-3
MEAN_MOTION_DOT = .355E-5
MEAN_MOTION_DDOT = 0

CCSDS_OMM_VERS = 2.0
CREATION_DATE  = 
ORIGINATOR     = 

OBJECT_NAME    = ARIANE 5 R/B
OBJECT_ID      = 2004-049H
CENTER_NAME    = EARTH
REF_FRAME      = TEME
TIME_SYSTEM    = UTC
MEAN_ELEMENT_THEORY = SGP/SGP4

EPOCH          = 2026-01-21T11:21:03.261888
MEAN_MOTION    = 14.85142753
ECCENTRICITY   = .0085063
INCLINATION    = 98.2550
RA_OF_ASC_NODE = 188.1884
ARG_OF_PERICENTER = 143.4836
MEAN_ANOMALY   = 217.2220

EPHEMERIS_TYPE = 0
CLASSIFICATION_TYPE = U
NORAD_CAT_ID   = 28499
ELEMENT_SET_NO = 999
REV_AT_EPOCH   = 13878
BSTAR          = .28784E-3
MEAN_MOTION_DOT = .2565E-4
MEAN_MOTION_DDOT = 0

CCSDS_OMM_VERS = 2.0
CREATION_DATE  = 
ORIGINATOR     = 

OBJECT_NAME    = CZ-2D R/B
OBJECT_ID      = 2005-024B
CENTER_NAME    = EARTH
REF_FRAME      = TEME
TIME_SYSTEM    = UTC
MEAN_ELEMENT_THEORY = SGP/SGP4

EPOCH          = 2026-01-21T12:04:41.029824
MEAN_MOTION    = 15.55997789
ECCENTRICITY   = .0005074
INCLINATION    = 97.3618
RA_OF_ASC_NODE = 35.0689
ARG_OF_PERICENTER = 167.2011
MEAN_ANOMALY   = 192.9373

EPHEMERIS_TYPE = 0
CLASSIFICATION_TYPE = U
NORAD_CAT_ID   = 28738
ELEMENT_SET_NO = 999
REV_AT_EPOCH   = 13243
BSTAR          = .5748E-3
MEAN_MOTION_DOT = .40026E-3
MEAN_MOTION_DDOT = 0

